NORAD_CAT_ID,OBJECT_NAME,OBJECT_TYPE,EPOCH,MEAN_MOTION,ECCENTRICITY,INCLINATION,RA_OF_ASC_NODE,ARG_OF_PERICENTER,MEAN_ANOMALY,BSTAR,MEAN_MOTION_DOT,MEAN_MOTION_DDOT,TLE_LINE0,TLE_LINE1,TLE_LINE2,SEMIMAJOR_AXIS,PERIOD,APOGEE,PERIGEE,DECAYED
52333.0,STARLINK-3847,PAYLOAD,2024-06-03 20:49:23,15.08838755,0.0001083,53.2147,219.3521,82.3982,277.7133,3.5609e-05,2.79e-06,0.0,0 STARLINK-3847,1 52333U 22045C   24155.86763117  .00000279  00000-0  35609-4 0  9990,2 52333  53.2147 219.3521 0001083  82.3982 277.7133 15.08838755118434,6917.884,95.438,540.498,539.0,0.0
52333.0,STARLINK-3847,PAYLOAD,2024-06-04 03:10:56,15.0883217,0.0001257,53.2169,218.1645,89.3827,270.7309,4.855e-05,4.85e-06,0.0,0 STARLINK-3847,1 52333U 22045C   24156.13259678  .00000485  00000-0  48550-4 0  9991,2 52333  53.2169 218.1645 0001257  89.3827 270.7309 15.08832170118477,6917.904,95.438,540.639,538.9,0.0
52333.0,STARLINK-3847,PAYLOAD,2024-06-04 11:07:51,15.08839321,0.0001531,53.2159,216.6776,88.8794,271.2373,1.8822e-05,1.2e-07,0.0,0 STARLINK-3847,1 52333U 22045C   24156.46379489  .00000012  00000-0  18822-4 0  9995,2 52333  53.2159 216.6776 0001531  88.8794 271.2373 15.08839321118524,6917.882,95.438,540.807,538.688,0.0
52333.0,STARLINK-3847,PAYLOAD,2024-06-04 20:40:10,15.0884016,0.0001322,53.2158,214.8932,89.799,270.3153,9.0272e-05,1.149e-05,0.0,0 STARLINK-3847,1 52333U 22045C   24156.86123319  .00001149  00000-0  90272-4 0  9999,2 52333  53.2158 214.8932 0001322  89.7990 270.3153 15.08840160118588,6917.88,95.438,540.659,538.83,0.0
52333.0,STARLINK-3847,PAYLOAD,2024-06-05 03:01:42,15.08841437,0.0001251,53.2158,213.7037,92.8001,267.3134,0.00011413,1.529e-05,0.0,0 STARLINK-3847,1 52333U 22045C   24157.12619195  .00001529  00000-0  11413-3 0  9992,2 52333  53.2158 213.7037 0001251  92.8001 267.3134 15.08841437118629,6917.876,95.437,540.606,538.876,0.0
52333.0,STARLINK-3847,PAYLOAD,2024-06-05 10:58:38,15.08844037,0.0001235,53.2159,212.2171,93.1402,266.9732,0.00013594,1.877e-05,0.0,0 STARLINK-3847,1 52333U 22045C   24157.45739007  .00001877  00000-0  13594-3 0  9991,2 52333  53.2159 212.2171 0001235  93.1402 266.9732 15.08844037118677,6917.868,95.437,540.587,538.879,0.0
52333.0,STARLINK-3847,PAYLOAD,2024-06-05 20:30:57,15.08845289,0.0001174,53.2155,210.4321,81.8454,278.2672,0.00014187,1.971e-05,0.0,0 STARLINK-3847,1 52333U 22045C   24157.85482861  .00001971  00000-0  14187-3 0  9992,2 52333  53.2155 210.4321 0001174  81.8454 278.2672 15.08845289118739,6917.864,95.437,540.541,538.917,0.0
52333.0,STARLINK-3847,PAYLOAD,2024-06-06 10:49:25,15.08840912,0.0001507,53.2169,207.7526,84.0899,276.0265,4.3117e-05,3.98e-06,0.0,0 STARLINK-3847,1 52333U 22045C   24158.45099527  .00000398  00000-0  43117-4 0  9990,2 52333  53.2169 207.7526 0001507  84.0899 276.0265 15.08840912118820,6917.878,95.437,540.785,538.7,0.0
52333.0,STARLINK-3847,PAYLOAD,2024-06-07 09:04:50,15.08837657,0.0001216,53.2154,203.5929,83.828,276.2851,1.8091e-05,0.0,0.0,0 STARLINK-3847,1 52333U 22045C   24159.37835850  .00000000  00000-0  18091-4 0  9992,2 52333  53.2154 203.5929 0001216  83.8280 276.2851 15.08837657118963,6917.888,95.438,540.594,538.911,0.0
52333.0,STARLINK-3847,PAYLOAD,2024-06-07 20:12:31,15.08849913,0.0001324,53.216,201.5092,87.9486,272.1658,-1.2712e-05,-4.9e-06,0.0,0 STARLINK-3847,1 52333U 22045C   24159.84202999 -.00000490  00000-0 -12712-4 0  9995,2 52333  53.2160 201.5092 0001324  87.9486 272.1658 15.08849913119039,6917.85,95.437,540.631,538.799,0.0
52333.0,STARLINK-3847,PAYLOAD,2024-06-08 02:34:04,15.08831441,0.0001273,53.216,200.3203,89.3365,270.7773,0.00031286,4.694e-05,0.0,0 STARLINK-3847,1 52333U 22045C   24160.10699442  .00004694  00000-0  31286-3 0  9993,2 52333  53.2160 200.3203 0001273  89.3365 270.7773 15.08831441119078,6917.907,95.438,540.652,538.891,0.0
52333.0,STARLINK-3847,PAYLOAD,2024-06-08 08:55:36,15.08849626,0.0001267,53.2163,199.1309,86.8108,273.3029,0.00019882,2.879e-05,0.0,0 STARLINK-3847,1 52333U 22045C   24160.37194553  .00002879  00000-0  19882-3 0  9996,2 52333  53.2163 199.1309 0001267  86.8108 273.3029 15.08849626119115,6917.851,95.437,540.592,538.839,0.0
52333.0,STARLINK-3847,PAYLOAD,2024-06-08 20:03:18,15.08841506,0.0001287,53.2139,197.0482,90.4499,269.664,4.2951e-05,3.96e-06,0.0,0 STARLINK-3847,1 52333U 22045C   24160.83563225  .00000396  00000-0  42951-4 0  9999,2 52333  53.2139 197.0482 0001287  90.4499 269.6640 15.08841506119186,6917.876,95.437,540.631,538.85,0.0
52333.0,STARLINK-3847,PAYLOAD,2024-06-09 11:57:10,15.0883508,0.0001311,53.2153,194.0746,95.5133,264.6009,1.93e-05,1.9e-07,0.0,0 STARLINK-3847,1 52333U 22045C   24161.49803920  .00000019  00000-0  19300-4 0  9995,2 52333  53.2153 194.0746 0001311  95.5133 264.6009 15.08835080119286,6917.895,95.438,540.667,538.853,0.0
52333.0,STARLINK-3847,PAYLOAD,2024-06-10 11:47:57,15.08841616,0.0001662,53.2173,189.616,94.4529,265.6653,1.5228e-05,-4.6e-07,0.0,0 STARLINK-3847,1 52333U 22045C   24162.49163592 -.00000046  00000-0  15228-4 0  9996,2 52333  53.2173 189.6160 0001662  94.4529 265.6653 15.08841616119439,6917.875,95.437,540.89,538.591,0.0
52333.0,STARLINK-3847,PAYLOAD,2024-06-11 08:27:58,15.08838325,0.0001408,53.2163,185.7496,79.987,280.128,0.00013536,1.867e-05,0.0,0 STARLINK-3847,1 52333U 22045C   24163.35275602  .00001867  00000-0  13536-3 0  9998,2 52333  53.2163 185.7496 0001408  79.9870 280.1280 15.08838325119567,6917.886,95.438,540.725,538.776,0.0
52333.0,STARLINK-3847,PAYLOAD,2024-06-12 05:07:59,15.08833949,0.0001422,53.2165,181.8848,79.529,280.5863,7.6109e-06,-1.67e-06,0.0,0 STARLINK-3847,1 52333U 22045C   24164.21388499 -.00000167  00000-0  76109-5 0  9993,2 52333  53.2165 181.8848 0001422  79.5290 280.5863 15.08833949119697,6917.899,95.438,540.748,538.78,0.0
52333.0,STARLINK-3847,PAYLOAD,2024-06-12 06:43:22,15.08833685,0.000142,53.2165,181.5874,79.3169,280.7983,3.7821e-06,-2.28e-06,0.0,0 STARLINK-3847,1 52333U 22045C   24164.28012540 -.00000228  00000-0  37821-5 0  9997,2 52333  53.2165 181.5874 0001420  79.3169 280.7983 15.08833685119708,6917.9,95.438,540.747,538.782,0.0
52333.0,STARLINK-3847,PAYLOAD,2024-06-12 17:51:04,15.08834429,0.0001418,53.2164,179.5056,78.5414,281.5737,6.5942e-06,-1.83e-06,0.0,0 STARLINK-3847,1 52333U 22045C   24164.74380585 -.00000183  00000-0  65942-5 0  9990,2 52333  53.2164 179.5056 0001418  78.5414 281.5737 15.08834429119777,6917.897,95.438,540.743,538.781,0.0
52333.0,STARLINK-3847,PAYLOAD,2024-06-13 08:09:33,15.08836998,0.0001397,53.2161,176.8297,81.3957,278.7193,1.7952e-05,-2e-08,0.0,0 STARLINK-3847,1 52333U 22045C   24165.33996536 -.00000002  00000-0  17952-4 0  9992,2 52333  53.2161 176.8297 0001397  81.3957 278.7193 15.08836998119868,6917.89,95.438,540.721,538.788,0.0
52333.0,STARLINK-3847,PAYLOAD,2024-06-14 08:00:19,15.08840428,0.0001322,53.2158,172.3683,83.9979,276.1164,9.2912e-05,1.191e-05,0.0,0 STARLINK-3847,1 52333U 22045C   24166.33356186  .00001191  00000-0  92912-4 0  9992,2 52333  53.2158 172.3683 0001322  83.9979 276.1164 15.08840428120016,6917.879,95.438,540.659,538.83,0.0
52333.0,STARLINK-3847,PAYLOAD,2024-06-14 17:32:38,15.08840828,0.0001323,53.2158,170.5842,84.3556,275.7587,8.7938e-05,1.112e-05,0.0,0 STARLINK-3847,1 52333U 22045C   24166.73100176  .00001112  00000-0  87938-4 0  9997,2 52333  53.2158 170.5842 0001323  84.3556 275.7587 15.08840828120074,6917.878,95.438,540.658,538.828,0.0
52333.0,STARLINK-3847,PAYLOAD,2024-06-15 07:51:06,15.08843202,0.0001338,53.2156,167.9075,85.5646,274.5499,6.7748e-05,7.91e-06,0.0,0 STARLINK-3847,1 52333U 22045C   24167.32716057  .00000791  00000-0  67748-4 0  9993,2 52333  53.2156 167.9075 0001338  85.5646 274.5499 15.08843202120167,6917.871,95.437,540.661,538.81,0.0
52333.0,STARLINK-3847,PAYLOAD,2024-06-15 17:23:25,15.08842733,0.0001375,53.2157,166.1243,83.5254,276.5895,4.2927e-05,3.95e-06,0.0,0 STARLINK-3847,1 52333U 22045C   24167.72460130  .00000395  00000-0  42927-4 0  9997,2 52333  53.2157 166.1243 0001375  83.5254 276.5895 15.08842733120227,6917.872,95.437,540.688,538.786,0.0
52333.0,STARLINK-3847,PAYLOAD,2024-06-16 06:06:30,15.08841297,0.0001442,53.2159,163.7455,83.6605,276.4552,1.1099e-05,-1.11e-06,0.0,0 STARLINK-3847,1 52333U 22045C   24168.25452270 -.00000111  00000-0  11099-4 0  9995,2 52333  53.2159 163.7455 0001442  83.6605 276.4552 15.08841297120305,6917.876,95.437,540.739,538.744,0.0
52333.0,STARLINK-3847,PAYLOAD,2024-06-16 17:14:12,15.08842402,0.0001448,53.216,161.664,83.5973,276.5184,2.3627e-05,8.8e-07,0.0,0 STARLINK-3847,1 52333U 22045C   24168.71820093  .00000088  00000-0  23627-4 0  9990,2 52333  53.2160 161.6640 0001448  83.5973 276.5184 15.08842402120371,6917.873,95.437,540.74,538.736,0.0
52333.0,STARLINK-3847,PAYLOAD,2024-06-17 09:08:03,15.08843054,0.0001416,53.2158,158.6891,92.5793,267.5361,4.748e-05,4.68e-06,0.0,0 STARLINK-3847,1 52333U 22045C   24169.38059936  .00000468  00000-0  47480-4 0  9999,2 52333  53.2158 158.6891 0001416  92.5793 267.5361 15.08843054120479,6917.871,95.437,540.716,538.756,0.0
52333.0,STARLINK-3847,PAYLOAD,2024-06-18 04:12:41,15.08836796,0.0001431,53.216,155.1202,94.0539,266.0616,9.2311e-06,-1.41e-06,0.0,0 STARLINK-3847,1 52333U 22045C   24170.17548368 -.00000141  00000-0  92311-5 0  9993,2 52333  53.2160 155.1202 0001431  94.0539 266.0616 15.08836796120597,6917.89,95.438,540.745,538.765,0.0
52333.0,STARLINK-3847,PAYLOAD,2024-06-18 05:48:04,15.08837393,0.0001424,53.2161,154.8229,93.4204,266.6951,1.4727e-05,-5.4e-07,0.0,0 STARLINK-3847,1 52333U 22045C   24170.24172322 -.00000054  00000-0  14727-4 0  9991,2 52333  53.2161 154.8229 0001424  93.4204 266.6951 15.08837393120601,6917.888,95.438,540.738,538.768,0.0
52333.0,STARLINK-3847,PAYLOAD,2024-06-19 05:38:52,15.08836477,0.0001412,53.2165,150.3632,92.2893,267.826,1.1569e-05,-1.04e-06,0.0,0 STARLINK-3847,1 52333U 22045C   24171.23532596 -.00000104  00000-0  11569-4 0  9991,2 52333  53.2165 150.3632 0001412  92.2893 267.8260 15.08836477120756,6917.891,95.438,540.733,538.779,0.0
